              M50 Cartesian                         J2K Cartesian  
    -----------------------------------       --------------------------------
     X    =        -782979.38                 X    =         -164139.96
     Y    =      -14535211.17  feet           Y    =        -4432584.82  meter
     Z    =      -16853353.93                 Z    =        -5137880.36
     XDOT =      23599.206839                 XDOT =        7209.110509
     YDOT =      -7034.113727  feet/sec       YDOT =       -2063.470567  meter/sec
     ZDOT =       4976.206861                 ZDOT =        1551.729669
 
              TDR Cartesian                         TDR Cartesian  
    -----------------------------------       --------------------------------
     X    =      -13675262.08                 X    =        -4168219.88
     Y    =        4975847.26  feet           Y    =         1516638.24  meter
     Z    =      -16856723.00                 Z    =        -5137929.17
     XDOT =     -13374.112671                 XDOT =       -4076.429542
     YDOT =     -19402.732757  feet/sec       YDOT =       -5913.952944  meter/sec
     ZDOT =       5128.553200                 ZDOT =        1563.183015
  
  
    The mean element set is posted at the UTC for which position is
    just north of the next ascending node relative to the above
    vector time
 
 
    TWO LINE MEAN ELEMENT SET
  
    ISS
    1 25544U 98067A   16113.72728660  .00016717  00000-0  10270-3 0  9018
    2 25544  51.6417 334.6723 0001621  65.4582 294.6740 15.54314491 36350
  
  
    Satellite: ISS
    Catalog Number: 25544
    Epoch time:      16113.72728660   =   yrday.fracday
    Element set:     901
    Inclination:       51.6417  deg
    RA of node:       334.6723  deg
    Eccentricity:     .0001621     
    Arg of perigee:    65.4582  deg
    Mean anomaly:     294.6740  deg
    Mean motion:   15.54314491  rev/day
    Decay rate:    1.67170E-04  rev/day^2
    Epoch rev:            3635
    Checksum:              302
 
 
    Coasting Arc #3 (Orbit 3650)
    ---------------------------------------
 
    Vector Time (GMT): 2016/114/17:08:00.000
    Vector Time (MET): N/A
    Weight (LBS)     : 945238.6
 
              M50 Cartesian                         M50 Keplerian  
    -----------------------------------       --------------------------------
     X    =       -1458450.26                 A    =         6780718.64  meter
     Y    =        4949613.98  meter          E    =           .0011062
     Z    =        4392269.22                 I    =           51.44835
     XDOT =      -6832.188661                 Wp   =           70.38287
     YDOT =        971.223005  meter/sec      RA   =          329.13207  deg
     ZDOT =      -3352.550824                 TA   =           53.63832
                                              MA   =           53.53630
                                              Ha   =            221.344  n.mi
                                              Hp   =            213.866
 
              M50 Cartesian                         J2K Cartesian  
    -----------------------------------       --------------------------------
     X    =       -4784941.79                 X    =        -1535025.86
     Y    =       16238891.02  feet           Y    =         4932876.66  meter
     Z    =       14410332.08                 Z    =         4384998.08
     XDOT =     -22415.317128                 XDOT =       -6826.255760
     YDOT =       3186.427181  feet/sec       YDOT =         894.853951  meter/sec
     ZDOT =     -10999.182493                 ZDOT =       -3385.726177
 
              TDR Cartesian                         TDR Cartesian  
    -----------------------------------       --------------------------------
     X    =       16950180.50                 X    =         5166415.02
     Y    =        -475275.18  feet           Y    =         -144863.87  meter
     Z    =       14377775.02                 Z    =         4382345.83
     XDOT =      10013.689801                 XDOT =        3052.172651
     YDOT =      18973.776734  feet/sec       YDOT =        5783.207149  meter/sec
     ZDOT =     -11143.443626                 ZDOT =       -3396.521617
  
  
    The mean element set is posted at the UTC for which position is
    just north of the next ascending node relative to the above
    vector time
 
 
    TWO LINE MEAN ELEMENT SET
  
    ISS
    1 25544U 98067A   16114.75600000  .00016717  00000-0  10270-3 0  9020
    2 25544  51.6410 329.5422 0001602  71.6095 288.5232 15.54284930 36519
  
  
    Satellite: ISS
    Catalog Number: 25544
    Epoch time:      16114.75600000   =   yrday.fracday
    Element set:     902
    Inclination:       51.6410  deg
    RA of node:       329.5422  deg
    Eccentricity:     .0001602     
    Arg of perigee:    71.6095  deg
    Mean anomaly:     288.5232  deg
    Mean motion:   15.54284930  rev/day
    Decay rate:    1.67170E-04  rev/day^2
    Epoch rev:            3651
    Checksum:              273
 
 
    Coasting Arc #4 (Orbit 3665)
    ---------------------------------------
 
    Vector Time (GMT): 2016/115/17:08:00.000
    Vector Time (MET): N/A
    Weight (LBS)     : 945238.6
 
              M50 Cartesian                         M50 Keplerian  
    -----------------------------------       --------------------------------
     X    =        2912867.78                 A    =         6784547.70  meter
     Y    =       -5237760.11  meter          E    =           .0006039
     Z    =       -3183055.34                 I    =           51.43553
     XDOT =       5962.967635                 Wp   =           75.00855
     YDOT =        407.117562  meter/sec      RA   =          324.13156  deg
     ZDOT =       4796.053468                 TA   =          248.12954
                                              MA   =          248.19377
                                              Ha   =            221.246  n.mi
                                              Hp   =            213.888
 
              M50 Cartesian                         J2K Cartesian  
    -----------------------------------       --------------------------------
     X    =        9556652.82                 X    =         2986683.44
     Y    =      -17184252.33  feet           Y    =        -5204773.85  meter
     Z    =      -10443094.94                 Z    =        -3168725.64
     XDOT =      19563.542111                 XDOT =        5934.674349
     YDOT =       1335.687539  feet/sec       YDOT =         473.641369  meter/sec
     ZDOT =      15735.083558                 ZDOT =        4824.951899
 
              TDR Cartesian                         TDR Cartesian  
    -----------------------------------       --------------------------------
     X    =      -19400676.49                 X    =        -5913326.19
     Y    =       -3399885.43  feet           Y    =        -1036285.08  meter
     Z    =      -10379831.59                 Z    =        -3163772.67
     XDOT =      -5421.244852                 XDOT =       -1652.395431
     YDOT =     -17394.601925  feet/sec       YDOT =       -5301.874667  meter/sec
     ZDOT =      15860.493804                 ZDOT =        4834.278511
  
  
    The mean element set is posted at the UTC for which position is
    just north of the next ascending node relative to the above
    vector time
 
 
    TWO LINE MEAN ELEMENT SET
  
    ISS
    1 25544U 98067A   16115.72041174  .00016717  00000-0  10270-3 0  9030
    2 25544  51.6421 324.7336 0001516  68.1469 291.9845 15.54312706 36669
  
  
    Satellite: ISS
    Catalog Number: 25544
    Epoch time:      16115.72041174   =   yrday.fracday
    Element set:     903
    Inclination:       51.6421  deg
    RA of node:       324.7336  deg
    Eccentricity:     .0001516     
    Arg of perigee:    68.1469  deg
    Mean anomaly:     291.9845  deg
    Mean motion:   15.54312706  rev/day
    Decay rate:    1.67170E-04  rev/day^2
    Epoch rev:            3666
    Checksum:              303
 
 
    Coasting Arc #5 (Orbit 3681)
    ---------------------------------------
 
    Vector Time (GMT): 2016/116/17:08:00.000
    Vector Time (MET): N/A
    Weight (LBS)     : 945238.6
 
              M50 Cartesian                         M50 Keplerian  
    -----------------------------------       --------------------------------
     X    =       -4071250.41                 A    =         6787729.78  meter
     Y    =        5187776.30  meter          E    =           .0015053
     Z    =        1579624.24                 I    =           51.42123
     XDOT =      -4721.133869                 Wp   =          113.05547
     YDOT =      -1951.245300  meter/sec      RA   =          319.13943  deg
     ZDOT =      -5722.068694                 TA   =           49.60830
                                              MA   =           49.47702
                                              Ha   =            221.238  n.mi
                                              Hp   =            213.826
 
              M50 Cartesian                         J2K Cartesian  
    -----------------------------------       --------------------------------
     X    =      -13357120.78                 X    =        -4136632.11
     Y    =       17020263.46  feet           Y    =         5141883.33  meter
     Z    =        5182494.23                 Z    =         1559687.90
     XDOT =     -15489.284347                 XDOT =       -4671.167834
     YDOT =      -6401.723424  feet/sec       YDOT =       -2003.760864  meter/sec
     ZDOT =     -18773.191252                 ZDOT =       -5744.881794
 
